[{"OBJECT_NAME":"SHIYAN-28B 01","OBJECT_ID":"2025-145A","EPOCH":"2026-03-08T20:29:47.684832","MEAN_MOTION":14.29356521,"ECCENTRICITY":0.00033669,"INCLINATION":10.9981,"RA_OF_ASC_NODE":260.401,"ARG_OF_PERICENTER":306.4747,"MEAN_ANOMALY":53.517,"EPHEMERIS_TYPE":0,"CLASSIFICATION_TYPE":"U","NORAD_CAT_ID":64753,"ELEMENT_SET_NO":999,"REV_AT_EPOCH":3553,"BSTAR":0.00013091269,"MEAN_MOTION_DOT":7.71e-6,"MEAN_MOTION_DDOT":0},{"OBJECT_NAME":"DMSP 5D-2 F13 DEB","OBJECT_ID":"1995-015J","EPOCH":"2026-03-09T07:21:35.895744","MEAN_MOTION":14.30113405,"ECCENTRICITY":0.00066636,"INCLINATION":98.6998,"RA_OF_ASC_NODE":96.1263,"ARG_OF_PERICENTER":314.8486,"MEAN_ANOMALY":45.2154,"EPHEMERIS_TYPE":0,"CLASSIFICATION_TYPE":"U","NORAD_CAT_ID":40397,"ELEMENT_SET_NO":999,"REV_AT_EPOCH":57222,"BSTAR":0.0010658547,"MEAN_MOTION_DOT":2.712e-5,"MEAN_MOTION_DDOT":0}]
